ONEWEB-0501             
1 54119U 22138G   23314.78828052  .00000021  00000+0  19280-4 0  9995
2 54119  87.9174 133.9417 0001389  62.1719 297.9554 13.19723549 51587
ONEWEB-0502             
1 54120U 22138H   23314.77407800  .00000052  00000+0  98643-4 0  9994
2 54120  87.9173 133.9368 0001548  72.1107 288.0195 13.19724052 51607
ONEWEB-0503             
1 54121U 22138J   23315.52118274  .00000106  00000+0  23250-3 0  9994
2 54121  87.9173 133.7959 0001998  87.8034 272.3327 13.19724180 52564
ONEWEB-0504             
1 54122U 22138K   23314.75038875  .00000102  00000+0  22309-3 0  9997
2 54122  87.9176 133.9500 0001764  73.5559 286.5767 13.19725909 51606
ONEWEB-0505             
1 54123U 22138L   23314.89886698  .00000046  00000+0  81743-4 0  9992
2 54123  87.9173 133.9184 0001800  74.2418 285.8913 13.19725115 51609
ONEWEB-0506             
1 54124U 22138M   23314.79777163  .00000003  00000+0 -25598-4 0  9998
2 54124  87.9174 133.9354 0001455  74.1691 285.9602 13.19724465 51588
ONEWEB-0507             
1 54125U 22138N   23314.74249056  .00000015  00000+0  61165-5 0  9992
2 54125  87.9182 133.9490 0001435  74.4928 285.6363 13.19724720 51623
ONEWEB-0508             
1 54126U 22138P   23314.89094381  .00000093  00000+0  20110-3 0  9997
2 54126  87.9171 133.9234 0001348  61.9458 298.1811 13.19728409 51625
